sat13024
1 13024U 81053EW  20046.78008226  .00000450  00000-0  29358-3 0  9991
2 13024  82.9266 256.5454 0051359 351.6008 128.5469 13.99762538936097
